[{"OBJECT_NAME":"STARLINK-32616","OBJECT_ID":"2024-207J","EPOCH":"2026-03-09T23:10:23.967552","MEAN_MOTION":15.27586336,"ECCENTRICITY":0.00023795,"INCLINATION":43.0046,"RA_OF_ASC_NODE":280.2373,"ARG_OF_PERICENTER":264.898,"MEAN_ANOMALY":95.16,"EPHEMERIS_TYPE":0,"CLASSIFICATION_TYPE":"U","NORAD_CAT_ID":61920,"ELEMENT_SET_NO":999,"REV_AT_EPOCH":7476,"BSTAR":0.001015076,"MEAN_MOTION_DOT":0.00027782,"MEAN_MOTION_DDOT":0},{"OBJECT_NAME":"PUCP-SAT 1","OBJECT_ID":"2013-066AC","EPOCH":"2026-03-09T22:02:13.763904","MEAN_MOTION":15.29426022,"ECCENTRICITY":0.00136836,"INCLINATION":97.5787,"RA_OF_ASC_NODE":61.0032,"ARG_OF_PERICENTER":300.1183,"MEAN_ANOMALY":59.87,"EPHEMERIS_TYPE":0,"CLASSIFICATION_TYPE":"U","NORAD_CAT_ID":39442,"ELEMENT_SET_NO":999,"REV_AT_EPOCH":66907,"BSTAR":0.00088755185,"MEAN_MOTION_DOT":0.00025373,"MEAN_MOTION_DDOT":0}]
